<?xml version="1.0" encoding="UTF-8"?>
<ndm xmlns:xsi="http://www.w3.org/2001/XMLSchema-instance" xsi:noNamespaceSchemaLocation="https://sanaregistry.org/r/ndmxml_unqualified/ndmxml-2.0.0-master-2.0.xsd">
<omm id="CCSDS_OMM_VERS" version="2.0">
<header><CREATION_DATE/><ORIGINATOR/></header><body><segment><metadata><OBJECT_NAME>IRIDIUM 144</OBJECT_NAME><OBJECT_ID>2018-030A</OBJECT_ID><CENTER_NAME>EARTH</CENTER_NAME><REF_FRAME>TEME</REF_FRAME><TIME_SYSTEM>UTC</TIME_SYSTEM><MEAN_ELEMENT_THEORY>SGP4</MEAN_ELEMENT_THEORY></metadata><data><meanElements><EPOCH>2025-01-28T05:54:19.444896</EPOCH><MEAN_MOTION>14.34218037</MEAN_MOTION><ECCENTRICITY>.0002122</ECCENTRICITY><INCLINATION>86.4012</INCLINATION><RA_OF_ASC_NODE>141.5101</RA_OF_ASC_NODE><ARG_OF_PERICENTER>98.7279</ARG_OF_PERICENTER><MEAN_ANOMALY>261.4157</MEAN_ANOMALY></meanElements><tleParameters><EPHEMERIS_TYPE>0</EPHEMERIS_TYPE><CLASSIFICATION_TYPE>U</CLASSIFICATION_TYPE><NORAD_CAT_ID>43249</NORAD_CAT_ID><ELEMENT_SET_NO>999</ELEMENT_SET_NO><REV_AT_EPOCH>35776</REV_AT_EPOCH><BSTAR>.4501E-4</BSTAR><MEAN_MOTION_DOT>.146E-5</MEAN_MOTION_DOT><MEAN_MOTION_DDOT>0</MEAN_MOTION_DDOT></tleParameters></data></segment></body></omm>
<omm id="CCSDS_OMM_VERS" version="2.0">
<header><CREATION_DATE/><ORIGINATOR/></header><body><segment><metadata><OBJECT_NAME>IRIDIUM 149</OBJECT_NAME><OBJECT_ID>2018-030B</OBJECT_ID><CENTER_NAME>EARTH</CENTER_NAME><REF_FRAME>TEME</REF_FRAME><TIME_SYSTEM>UTC</TIME_SYSTEM><MEAN_ELEMENT_THEORY>SGP4</MEAN_ELEMENT_THEORY></metadata><data><meanElements><EPOCH>2025-01-28T06:03:27.374688</EPOCH><MEAN_MOTION>14.34218284</MEAN_MOTION><ECCENTRICITY>.000218</ECCENTRICITY><INCLINATION>86.4014</INCLINATION><RA_OF_ASC_NODE>141.4803</RA_OF_ASC_NODE><ARG_OF_PERICENTER>93.3136</ARG_OF_PERICENTER><MEAN_ANOMALY>266.8310</MEAN_ANOMALY></meanElements><tleParameters><EPHEMERIS_TYPE>0</EPHEMERIS_TYPE><CLASSIFICATION_TYPE>U</CLASSIFICATION_TYPE><NORAD_CAT_ID>43250</NORAD_CAT_ID><ELEMENT_SET_NO>999</ELEMENT_SET_NO><REV_AT_EPOCH>35778</REV_AT_EPOCH><BSTAR>.23817E-4</BSTAR><MEAN_MOTION_DOT>.86E-6</MEAN_MOTION_DOT><MEAN_MOTION_DDOT>0</MEAN_MOTION_DDOT></tleParameters></data></segment></body></omm>
<omm id="CCSDS_OMM_VERS" version="2.0">
<header><CREATION_DATE/><ORIGINATOR/></header><body><segment><metadata><OBJECT_NAME>IRIDIUM 157</OBJECT_NAME><OBJECT_ID>2018-030C</OBJECT_ID><CENTER_NAME>EARTH</CENTER_NAME><REF_FRAME>TEME</REF_FRAME><TIME_SYSTEM>UTC</TIME_SYSTEM><MEAN_ELEMENT_THEORY>SGP4</MEAN_ELEMENT_THEORY></metadata><data><meanElements><EPOCH>2025-01-28T06:30:51.435360</EPOCH><MEAN_MOTION>14.34217223</MEAN_MOTION><ECCENTRICITY>.0001772</ECCENTRICITY><INCLINATION>86.4014</INCLINATION><RA_OF_ASC_NODE>141.5142</RA_OF_ASC_NODE><ARG_OF_PERICENTER>91.0809</ARG_OF_PERICENTER><MEAN_ANOMALY>269.0590</MEAN_ANOMALY></meanElements><tleParameters><EPHEMERIS_TYPE>0</EPHEMERIS_TYPE><CLASSIFICATION_TYPE>U</CLASSIFICATION_TYPE><NORAD_CAT_ID>43251</NORAD_CAT_ID><ELEMENT_SET_NO>999</ELEMENT_SET_NO><REV_AT_EPOCH>35776</REV_AT_EPOCH><BSTAR>-.27878E-4</BSTAR><MEAN_MOTION_DOT>-.58E-6</MEAN_MOTION_DOT><MEAN_MOTION_DDOT>0</MEAN_MOTION_DDOT></tleParameters></data></segment></body></omm>
<omm id="CCSDS_OMM_VERS" version="2.0">
<header><CREATION_DATE/><ORIGINATOR/></header><body><segment><metadata><OBJECT_NAME>IRIDIUM 140</OBJECT_NAME><OBJECT_ID>2018-030D</OBJECT_ID><CENTER_NAME>EARTH</CENTER_NAME><REF_FRAME>TEME</REF_FRAME><TIME_SYSTEM>UTC</TIME_SYSTEM><MEAN_ELEMENT_THEORY>SGP4</MEAN_ELEMENT_THEORY></metadata><data><meanElements><EPOCH>2025-01-28T06:58:15.177216</EPOCH><MEAN_MOTION>14.34214711</MEAN_MOTION><ECCENTRICITY>.0002202</ECCENTRICITY><INCLINATION>86.4018</INCLINATION><RA_OF_ASC_NODE>141.5206</RA_OF_ASC_NODE><ARG_OF_PERICENTER>99.8823</ARG_OF_PERICENTER><MEAN_ANOMALY>260.2621</MEAN_ANOMALY></meanElements><tleParameters><EPHEMERIS_TYPE>0</EPHEMERIS_TYPE><CLASSIFICATION_TYPE>U</CLASSIFICATION_TYPE><NORAD_CAT_ID>43252</NORAD_CAT_ID><ELEMENT_SET_NO>999</ELEMENT_SET_NO><REV_AT_EPOCH>35782</REV_AT_EPOCH><BSTAR>.31222E-4</BSTAR><MEAN_MOTION_DOT>.107E-5</MEAN_MOTION_DOT><MEAN_MOTION_DDOT>0</MEAN_MOTION_DDOT></tleParameters></data></segment></body></omm>
<omm id="CCSDS_OMM_VERS" version="2.0">
<header><CREATION_DATE/><ORIGINATOR/></header><body><segment><metadata><OBJECT_NAME>IRIDIUM 145</OBJECT_NAME><OBJECT_ID>2018-030E</OBJECT_ID><CENTER_NAME>EARTH</CENTER_NAME><REF_FRAME>TEME</REF_FRAME><TIME_SYSTEM>UTC</TIME_SYSTEM><MEAN_ELEMENT_THEORY>SGP4</MEAN_ELEMENT_THEORY></metadata><data><meanElements><EPOCH>2025-01-28T06:39:59.550912</EPOCH><MEAN_MOTION>14.34217754</MEAN_MOTION><ECCENTRICITY>.000245</ECCENTRICITY><INCLINATION>86.4012</INCLINATION><RA_OF_ASC_NODE>141.4986</RA_OF_ASC_NODE><ARG_OF_PERICENTER>95.6090</ARG_OF_PERICENTER><MEAN_ANOMALY>264.5385</MEAN_ANOMALY></meanElements><tleParameters><EPHEMERIS_TYPE>0</EPHEMERIS_TYPE><CLASSIFICATION_TYPE>U</CLASSIFICATION_TYPE><NORAD_CAT_ID>43253</NORAD_CAT_ID><ELEMENT_SET_NO>999</ELEMENT_SET_NO><REV_AT_EPOCH>35775</REV_AT_EPOCH><BSTAR>.67447E-5</BSTAR><MEAN_MOTION_DOT>.39E-6</MEAN_MOTION_DOT><MEAN_MOTION_DDOT>0</MEAN_MOTION_DDOT></tleParameters></data></segment></body></omm>
<omm id="CCSDS_OMM_VERS" version="2.0">
<header><CREATION_DATE/><ORIGINATOR/></header><body><segment><metadata><OBJECT_NAME>IRIDIUM 146</OBJECT_NAME><OBJECT_ID>2018-030F</OBJECT_ID><CENTER_NAME>EARTH</CENTER_NAME><REF_FRAME>TEME</REF_FRAME><TIME_SYSTEM>UTC</TIME_SYSTEM><MEAN_ELEMENT_THEORY>SGP4</MEAN_ELEMENT_THEORY></metadata><data><meanElements><EPOCH>2025-01-28T06:12:35.337312</EPOCH><MEAN_MOTION>14.34215944</MEAN_MOTION><ECCENTRICITY>.0002456</ECCENTRICITY><INCLINATION>86.4015</INCLINATION><RA_OF_ASC_NODE>141.5208</RA_OF_ASC_NODE><ARG_OF_PERICENTER>97.8744</ARG_OF_PERICENTER><MEAN_ANOMALY>262.2730</MEAN_ANOMALY></meanElements><tleParameters><EPHEMERIS_TYPE>0</EPHEMERIS_TYPE><CLASSIFICATION_TYPE>U</CLASSIFICATION_TYPE><NORAD_CAT_ID>43254</NORAD_CAT_ID><ELEMENT_SET_NO>999</ELEMENT_SET_NO><REV_AT_EPOCH>35776</REV_AT_EPOCH><BSTAR>.70826E-4</BSTAR><MEAN_MOTION_DOT>.218E-5</MEAN_MOTION_DOT><MEAN_MOTION_DDOT>0</MEAN_MOTION_DDOT></tleParameters></data></segment></body></omm>
<omm id="CCSDS_OMM_VERS" version="2.0">
<header><CREATION_DATE/><ORIGINATOR/></header><body><segment><metadata><OBJECT_NAME>IRIDIUM 148</OBJECT_NAME><OBJECT_ID>2018-030G</OBJECT_ID><CENTER_NAME>EARTH</CENTER_NAME><REF_FRAME>TEME</REF_FRAME><TIME_SYSTEM>UTC</TIME_SYSTEM><MEAN_ELEMENT_THEORY>SGP4</MEAN_ELEMENT_THEORY></metadata><data><meanElements><EPOCH>2025-01-28T05:26:55.513824</EPOCH><MEAN_MOTION>14.34217182</MEAN_MOTION><ECCENTRICITY>.0002169</ECCENTRICITY><INCLINATION>86.4018</INCLINATION><RA_OF_ASC_NODE>141.5692</RA_OF_ASC_NODE><ARG_OF_PERICENTER>92.5486</ARG_OF_PERICENTER><MEAN_ANOMALY>267.5958</MEAN_ANOMALY></meanElements><tleParameters><EPHEMERIS_TYPE>0</EPHEMERIS_TYPE><CLASSIFICATION_TYPE>U</CLASSIFICATION_TYPE><NORAD_CAT_ID>43255</NORAD_CAT_ID><ELEMENT_SET_NO>999</ELEMENT_SET_NO><REV_AT_EPOCH>35779</REV_AT_EPOCH><BSTAR>-.28985E-4</BSTAR><MEAN_MOTION_DOT>-.61E-6</MEAN_MOTION_DOT><MEAN_MOTION_DDOT>0</MEAN_MOTION_DDOT></tleParameters></data></segment></body></omm>
<omm id="CCSDS_OMM_VERS" version="2.0">
<header><CREATION_DATE/><ORIGINATOR/></header><body><segment><metadata><OBJECT_NAME>IRIDIUM 142</OBJECT_NAME><OBJECT_ID>2018-030H</OBJECT_ID><CENTER_NAME>EARTH</CENTER_NAME><REF_FRAME>TEME</REF_FRAME><TIME_SYSTEM>UTC</TIME_SYSTEM><MEAN_ELEMENT_THEORY>SGP4</MEAN_ELEMENT_THEORY></metadata><data><meanElements><EPOCH>2025-01-28T09:42:39.581856</EPOCH><MEAN_MOTION>14.34216696</MEAN_MOTION><ECCENTRICITY>.0002408</ECCENTRICITY><INCLINATION>86.4013</INCLINATION><RA_OF_ASC_NODE>141.4023</RA_OF_ASC_NODE><ARG_OF_PERICENTER>91.5768</ARG_OF_PERICENTER><MEAN_ANOMALY>268.5704</MEAN_ANOMALY></meanElements><tleParameters><EPHEMERIS_TYPE>0</EPHEMERIS_TYPE><CLASSIFICATION_TYPE>U</CLASSIFICATION_TYPE><NORAD_CAT_ID>43256</NORAD_CAT_ID><ELEMENT_SET_NO>999</ELEMENT_SET_NO><REV_AT_EPOCH>35778</REV_AT_EPOCH><BSTAR>-.3956E-4</BSTAR><MEAN_MOTION_DOT>-.91E-6</MEAN_MOTION_DOT><MEAN_MOTION_DDOT>0</MEAN_MOTION_DDOT></tleParameters></data></segment></body></omm>

</ndm>
