IRIDIUM 144             
1 43249U 18030A   25028.24605839  .00000146  00000+0  45010-4 0  9992
2 43249  86.4012 141.5101 0002122  98.7279 261.4157 14.34218037357764
IRIDIUM 149             
1 43250U 18030B   25028.25240017  .00000086  00000+0  23817-4 0  9992
2 43250  86.4014 141.4803 0002180  93.3136 266.8310 14.34218284357789
IRIDIUM 157             
1 43251U 18030C   25028.27142865 -.00000058  00000+0 -27878-4 0  9999
2 43251  86.4014 141.5142 0001772  91.0809 269.0590 14.34217223357760
IRIDIUM 140             
1 43252U 18030D   25028.29045344  .00000107  00000+0  31222-4 0  9997
2 43252  86.4018 141.5206 0002202  99.8823 260.2621 14.34214711357821
IRIDIUM 145             
1 43253U 18030E   25028.27777258  .00000039  00000+0  67447-5 0  9995
2 43253  86.4012 141.4986 0002450  95.6090 264.5385 14.34217754357751
IRIDIUM 146             
1 43254U 18030F   25028.25874233  .00000218  00000+0  70826-4 0  9998
2 43254  86.4015 141.5208 0002456  97.8744 262.2730 14.34215944357768
IRIDIUM 148             
1 43255U 18030G   25028.22703141 -.00000061  00000+0 -28985-4 0  9992
2 43255  86.4018 141.5692 0002169  92.5486 267.5958 14.34217182357794
IRIDIUM 142             
1 43256U 18030H   25028.40462479 -.00000091  00000+0 -39560-4 0  9993
2 43256  86.4013 141.4023 0002408  91.5768 268.5704 14.34216696357783
